satname,norad_id,inclination_deg,eccentricity,mean_motion_rev_per_day,perigee_km,apogee_km,l1,l2
STARLINK-1169,45061,53.0545,0.000127,15.06411309,546.2973828339018,548.0564125639175,1 45061U 20006T   25267.43405994  .00002376  00000+0  17830-3 0  9993,2 45061  53.0545 312.9724 0001270  89.1033 271.0101 15.06411309311403
STARLINK-1171,45062,53.0551,0.000155,15.0639236,546.1615408809803,548.3084061927766,1 45062U 20006U   25268.28183122 -.00000631  00000+0 -23493-4 0  9991,2 45062  53.0551 309.1625 0001550 107.9667 252.1491 15.06392360311533
STARLINK-1133,45064,53.0536,0.0001486,15.064057,546.1649841145891,548.2231925140368,1 45064U 20006W   25268.09568693 -.00000953  00000+0 -45071-4 0  9995,2 45064  53.0536 289.9968 0001486  74.3983 285.7170 15.06405700311785
STARLINK-1150,45067,53.0399,9.24e-05,16.00806587,271.5693734426068,272.7983527381066,1 45067U 20006Z   25268.39070058  .00473975  10936-3  86731-3 0  9990,2 45067  53.0399 231.5512 0000924 127.4680  12.5772 16.00806587312938
STARLINK-1167,45071,53.0555,0.000215,15.06391161,545.7496925682999,548.7276040970828,1 45071U 20006AD  25268.25420357  .00000726  00000+0  67637-4 0  9993,2 45071  53.0555 289.2904 0002150  81.0695 279.0538 15.06391161311803
STARLINK-1168,45072,53.0552,0.0001352,15.06405951,546.2570143812882,548.1296236995559,1 45072U 20006AE  25267.46170986  .00000565  00000+0  56782-4 0  9996,2 45072  53.0552 292.8476 0001352  89.4054 270.7090 15.06405951311689
STARLINK-1172,45074,53.0546,0.0001498,15.06403733,546.1627013544503,548.2375323546594,1 45074U 20006AG  25268.06987879  .00002041  00000+0  15583-3 0  9996,2 45074  53.0546 290.1168 0001498  89.1175 270.9986 15.06403733311777
STARLINK-1153,45080,53.0551,0.0001624,15.06384983,546.1328991824585,548.3822673431032,1 45080U 20006AN  25268.24682313 -.00000403  00000+0 -81827-5 0  9996,2 45080  53.0551 289.3229 0001624  96.4560 263.6614 15.06384983311804
STARLINK-1151,45081,53.0554,0.0001403,15.06391709,546.2653388078825,548.2085987435212,1 45081U 20006AP  25268.09939451  .00001110  00000+0  93394-4 0  9993,2 45081  53.0554 290.0623 0001403  96.5880 263.5269 15.06391709311782
STARLINK-1190,45083,53.0481,0.0008531,15.74354514,340.7318533006137,352.20537539981797,1 45083U 20006AR  25268.33339120  .00191152  00000+0  12686-2 0  9998,2 45083  53.0481 259.2274 0008531  47.9696  51.3757 15.74354514  5835
STARLINK-1173,45084,53.0435,0.0008083,15.84609591,312.01223699741877,322.8362813289823,1 45084U 20006AS  25268.33339120  .00377893  00000+0  15385-2 0  9996,2 45084  53.0435 222.8618 0008083  36.9383  71.7532 15.84609591  6002
STARLINK-1179,45085,53.0392,0.0001954,16.01847084,268.0047830247504,270.60260284754895,1 45085U 20006AT  25268.22242762  .01541924  14149-2  26957-2 0  9998,2 45085  53.0392 213.6139 0001954 132.3256 227.7940 16.01847084312862
STARLINK-1185,45087,53.0552,0.000144,15.06384485,546.2618525470552,548.256366626616,1 45087U 20006AV  25268.27448110  .00000016  00000+0  19964-4 0  9991,2 45087  53.0552 269.1948 0001440  88.6449 271.4705 15.06384485312098
STARLINK-1183,45088,53.0547,0.0001396,15.0639221,546.2686512775153,548.2022152608852,1 45088U 20006AW  25268.29657559 -.00000227  00000+0  36876-5 0  9990,2 45088  53.0547 269.0965 0001396  81.6920 278.4227 15.06392210312099
STARLINK-1176,45090,53.0478,0.0004128,15.82152478,321.5879004834742,327.1214776219567,1 45090U 20006AY  25268.33339120  .00388393  00000+0  17755-2 0  9993,2 45090  53.0478 220.6601 0004128  25.3491 204.4164 15.82152478  5990
STARLINK-1142,45093,53.0386,0.0005961,15.51050604,409.6088007910748,417.7059780621503,1 45093U 20006BB  25268.10262341  .00117010  00000+0  19551-2 0  9993,2 45093  53.0386 216.1108 0005961  81.1314 279.0369 15.51050604312825
STARLINK-1146,45094,53.0445,0.0003234,16.03546634,262.45765383282924,266.75417995147563,1 45094U 20006BC  25268.03588495  .01561260  15106-2  24713-2 0  9990,2 45094  53.0445 215.6020 0003234 103.9894 256.1496 16.03546634312824
STARLINK-1147,45095,53.0397,0.0006419,15.94104537,286.5298698834986,295.09146489889554,1 45095U 20006BD  25268.33339120  .00429620  84009-4  11385-2 0  9996,2 45095  53.0397 217.1132 0006419  40.2693 103.6065 15.94104537  6021
STARLINK-1152,45096,53.0456,0.0006111,15.21012806,498.57942623976305,506.9892883226312,1 45096U 20006BE  25268.22767930  .00075331  00000+0  33321-2 0  9993,2 45096  53.0456 255.7605 0006111  56.5538 303.6041 15.21012806312278
STARLINK-1184,45098,53.0547,0.0001385,15.06387172,546.2917079691351,548.2100404102866,1 45098U 20006BG  25268.24498068  .00000974  00000+0  84327-4 0  9995,2 45098  53.0547 269.3309 0001385  95.5107 264.6040 15.06387172312084
STARLINK-1193,45100,53.054,0.0001246,15.06385133,546.3942194189931,548.1200276345762,1 45100U 20006BJ  25268.17494465 -.00000178  00000+0  69203-5 0  9992,2 45100  53.0540 269.6427 0001246  91.5905 268.5227 15.06385133312077
STARLINK-1143,45179,53.0554,0.0003457,15.34329076,460.5490980540317,465.2790007495887,1 45179U 20012B   25268.00002315  .00086562  00000+0  25490-2 0  9993,2 45179  53.0554  42.1578 0003457 211.2690 208.7113 15.34329076  5879
STARLINK-1201,45182,53.0274,0.0002969,16.33004404,182.52971821336268,186.42659909457143,1 45182U 20012E   25268.48795676  .05462505  12183-4  86926-3 0  9990,2 45182  53.0274 345.7335 0002969 291.8532  68.2195 16.33004404310931
STARLINK-1202,45183,53.0543,0.0001342,15.06386819,546.3225689015271,548.1813432973431,1 45183U 20012F   25267.77318816  .00000410  00000+0  46445-4 0  9990,2 45183  53.0543  71.4469 0001342  90.8297 269.2846 15.06386819309836
STARLINK-1216,45185,53.0548,0.0001261,15.0639512,546.353226136629,548.0998028149797,1 45185U 20012H   25267.76580432 -.00000912  00000+0 -42317-4 0  9999,2 45185  53.0548  71.4777 0001261  93.3602 266.7532 15.06395120309775
STARLINK-1225,45187,53.0534,0.0001215,15.06399216,546.3725306446677,548.0553909281389,1 45187U 20012K   25267.71788825  .00000218  00000+0  33495-4 0  9996,2 45187  53.0534  71.6938 0001215  94.8057 265.3070 15.06399216309819
STARLINK-1230,45189,53.0547,0.0001299,15.06397463,546.3197297010747,548.1189372765148,1 45189U 20012M   25268.18600122  .00001073  00000+0  90927-4 0  9996,2 45189  53.0547  69.5937 0001299  95.5818 264.5319 15.06397463307115
STARLINK-1234,45190,53.0561,0.0001212,15.0642807,546.2861869484886,547.9648705854615,1 45190U 20012N   25268.33710953 -.00010045  00000+0 -65594-3 0  9991,2 45190  53.0561  28.9147 0001212  77.5745 282.5380 15.06428070310378
STARLINK-1240,45194,53.0385,0.0005408,16.10668253,241.4289332317403,248.59252981815735,1 45194U 20012S   25268.55500590  .00957533  54734-3  95250-3 0  9992,2 45194  53.0385   8.3881 0005408   2.1449 357.9607 16.10668253310676
STARLINK-1244,45196,53.0329,0.0007277,16.20535836,213.29734587137318,222.8975054544835,1 45196U 20012U   25268.51931116  .02231569  11848-4  10729-2 0  9995,2 45196  53.0329   7.5261 0007277 348.8893  11.1983 16.20535836310833
STARLINK-1269,45197,53.0547,0.0001836,15.06393793,545.9590840766523,548.5020790526014,1 45197U 20012V   25267.73263158  .00000292  00000+0  38509-4 0  9999,2 45197  53.0547  71.6311 0001836  96.0281 264.0917 15.06393793309798
STARLINK-1154,45198,53.0556,0.0001381,15.06385667,546.2990901648209,548.2118835696947,1 45198U 20012W   25267.72342327 -.00000309  00000+0 -18734-5 0  9995,2 45198  53.0556  51.6692 0001381  81.8976 278.2170 15.06385667310046
STARLINK-1199,45201,53.0547,0.000149,15.06398686,546.1837076267657,548.2474626971434,1 45201U 20012Z   25268.13254729  .00000306  00000+0  39431-4 0  9995,2 45201  53.0547  49.8319 0001490  93.4709 266.6450 15.06398686310160
STARLINK-1208,45205,53.0386,0.0001219,16.07285564,253.49168718822602,255.10867537302147,1 45205U 20012AD  25268.52227883  .00864905  41035-3  10713-2 0  9993,2 45205  53.0386 350.9130 0001219  48.4519 311.6618 16.07285564311047
STARLINK-1209,45206,53.0562,0.0001725,15.0637837,546.0832175043361,548.4724856281255,1 45206U 20012AE  25267.54465055 -.00002362  00000+0 -13977-3 0  9992,2 45206  53.0562  32.4750 0001725  79.1634 280.9550 15.06378370309401
STARLINK-1210,45207,53.0298,0.0011783,15.47802224,415.14275204470323,431.17068081684465,1 45207U 20012AF  25268.33339120  .00123229  00000+0  23016-2 0  9992,2 45207  53.0298   0.5752 0011783 278.4064 193.1000 15.47802224  5900
STARLINK-1231,45212,53.0518,0.0002586,15.09262375,536.6640285713765,540.2412887428345,1 45212U 20012AL  25268.12210169  .00056338  00000+0  34888-2 0  9991,2 45212  53.0518  49.3426 0002586 196.6920 163.3985 15.09262375310122
STARLINK-1271,45217,53.0546,0.0001184,15.06389988,546.422278543816,548.0622083486642,1 45217U 20012AR  25267.71973205 -.00001946  00000+0 -11180-3 0  9995,2 45217  53.0546  51.6840 0001184  84.5182 275.5942 15.06389988310106
STARLINK-1191,45222,53.0561,0.0001353,15.06394046,546.2928040219786,548.1668082797214,1 45222U 20012AW  25268.32606703  .00003123  00000+0  22852-3 0  9990,2 45222  53.0561  28.9643 0001353  91.9686 268.1458 15.06394046310477
STARLINK-1212,45223,53.0562,0.0001419,15.06407876,546.2047157027118,548.1701227728918,1 45223U 20012AX  25267.54839982  .00003901  00000+0  28061-3 0  9993,2 45223  53.0562  33.1119 0001419  76.0354 284.0793 15.06407876310356
STARLINK-1215,45225,53.0558,9.18e-05,15.06387621,546.6137475696678,547.8852485307107,1 45225U 20012AZ  25267.57043511 -.00006802  00000+0 -43834-3 0  9993,2 45225  53.0558  32.3546 0000918  93.3032 266.8063 15.06387621310315
STARLINK-1217,45226,53.0443,0.000125,15.90674065,299.5606440871825,301.23027720234313,1 45226U 20012BA  25268.33339120  .00294538  43209-4  93845-3 0  9996,2 45226  53.0443 337.4306 0001250 306.6707 264.7757 15.90674065  6011
STARLINK-1221,45227,53.0678,0.0002985,15.35230563,458.1944906757062,462.276999204435,1 45227U 20012BB  25268.14241785  .00028735  00000+0  83592-3 0  9994,2 45227  53.0678 330.1429 0002985 190.8012 169.2926 15.35230563311225
